KUIPER-00619            
1 69777U 26151Q   26199.55429294  .00012621  00000+0  33569-3 0  9998
2 69777  51.8809 163.9998 0002142  59.8022 300.3177 15.38593794  2534
KUIPER-00621            
1 69778U 26151R   26199.62165443  .00024675  00000+0  65034-3 0  9994
2 69778  51.8803 163.7041 0002560 127.4874 232.6347 15.38363011  2541
KUIPER-00622            
1 69779U 26151S   26199.89576301  .00012645  00000+0  35411-3 0  9993
2 69779  51.8738 162.5379 0006957 158.2147 201.9136 15.36974086  2586
KUIPER-00623            
1 69780U 26151T   26198.26556190  .00133416  00000+0  34980-2 0  9998
2 69780  51.8777 170.3650 0006129 146.6000 213.5375 15.37672053  2337
KUIPER-00626            
1 69781U 26151U   26199.38846122 -.00009712  00000+0 -27075-3 0  9991
2 69781  51.8720 165.1335 0007669 171.5528 188.5588 15.34990807  2503
KUIPER-00627            
1 69782U 26151V   26199.39056766 -.00047612  00000+0 -13894-2 0  9994
2 69782  51.8693 165.1438 0010822 175.1356 184.9736 15.34693182  2502
KUIPER-00629            
1 69783U 26151W   26199.91668981  .00001640  00000+0  68168-4 0  9996
2 69783  51.8787 162.5704 0006842 168.7212 255.3018 15.29891646  2910
KUIPER-00631            
1 69784U 26151X   26199.91668981 -.00896249  00000+0 -32259-1 0  9995
2 69784  51.8751 162.5550 0008156 171.0644 252.6311 15.30796477  1303
KUIPER-00634            
1 69785U 26151Y   26199.88773189  .00012966  00000+0  35348-3 0  9997
2 69785  51.8779 162.4879 0003601 144.1604 215.9626 15.37799885  2589
KUIPER-00639            
1 69786U 26151Z   26199.90631273  .00015584  00000+0  46012-3 0  9997
2 69786  51.8719 162.6032 0009916 176.2315 183.8747 15.35101492  2583
KUIPER-00641            
1 69787U 26151AA  26199.66671296  .00002779  00000+0  93043-4 0  9999
2 69787  51.8679 163.8314 0011938 170.4788 267.0344 15.34501818  3182
KUIPER-00644            
1 69788U 26151AB  26199.91668981  .00019176  00000+0  53830-3 0  9993
2 69788  51.8750 162.4923 0008404 172.0138 276.4377 15.36540694  3520
KUIPER-00646            
1 69789U 26151AC  26199.51463705  .00024178  00000+0  68987-3 0  9994
2 69789  51.8704 164.4782 0009142 177.9379 182.1646 15.35875674  2525
KUIPER-00647            
1 69790U 26151AD  26199.38929917 -.00001567  00000+0 -34049-4 0  9995
2 69790  51.8665 165.1337 0010638 176.4406 183.6657 15.35105780  2504
KUIPER-00662            
1 69791U 26151AE  26199.90072797  .00008498  00000+0  24494-3 0  9999
2 69791  51.8748 162.5705 0008212 172.1395 187.9722 15.36538152  2584
LINK                    
1 69792U 26152A   26199.55753721  .00092753  00000+0  77286-3 0  9999
2 69792  20.5910 301.5041 0024958  41.6624 318.5720 15.67914384  2384
2026-152B               
1 69793U 26152B   26199.95447191  .00033307  00000+0  30949-3 0  9990
2 69793  20.5977 298.7275 0023035  45.0737 315.1574 15.65042614  2445
ISS OBJECT YJ           
1 69794U 98067YJ  26199.91839844  .00020138  00000+0  35741-3 0  9994
2 69794  51.6313 142.9566 0007751 324.7692  35.2783 15.50174623  2578
ISS OBJECT YK           
1 69795U 98067YK  26199.84843454  .00035331  00000+0  60293-3 0  9990
2 69795  51.6313 143.2401 0006592 331.5966  28.4663 15.50965020  2562
ISS OBJECT YL           
1 69796U 98067YL  26199.07665547  .00028307  00000+0  49057-3 0  9991
2 69796  51.6315 147.0863 0008719 322.6666  37.3717 15.50628198  2437
ISS OBJECT YM           
1 69797U 98067YM  26199.14076886  .00029042  00000+0  50205-3 0  9996
2 69797  51.6314 146.7645 0009527 314.1271  45.8934 15.50677012  2431
ISS OBJECT YN           
1 69798U 98067YN  26199.07743515  .00018532  00000+0  32670-3 0  9997
2 69798  51.6317 147.0913 0009190 325.6783  34.3611 15.50414888  2444
PROVES-ELECTRA          
1 69799U 98067YP  26198.17400478  .00024046  00000+0  41820-3 0  9990
2 69799  51.6315 151.5587 0009700 310.8273  49.1874 15.50615173  2295
QIANFAN-201             
1 69800U 26153A   26199.18856381 -.01723216  00000+0 -84414+0 0  9990
2 69800  88.9921 358.7016 0006905 149.7286 210.4306 14.22000035  1979
QIANFAN-202             
1 69801U 26153B   26199.92004325  .00000170  00000+0  74768-4 0  9996
2 69801  88.9927 358.6249 0007094 163.2772 196.8652 14.18843921  2071
QIANFAN-203             
1 69802U 26153C   26199.34660293 -.01871829  00000+0 -99096+0 0  9991
2 69802  88.9920 358.6881 0012649 191.3457 168.7448 14.17511061  1998
QIANFAN-204             
1 69803U 26153D   26199.91530259  .00000125  00000+0  51895-4 0  9993
2 69803  88.9927 358.6241 0008053 166.7059 193.4345 14.20114629  2078
QIANFAN-205             
1 69804U 26153E   26199.91204104  .00000105  00000+0  40608-4 0  9999
2 69804  88.9926 358.6234 0007957 170.5286 189.6057 14.22264904  2078
QIANFAN-206             
1 69805U 26153F   26199.90127854  .00000046  00000+0  13589-4 0  9997
2 69805  88.9926 358.6219 0008440 171.1991 188.9351 14.24034656  2070
QIANFAN-207             
1 69806U 26153G   26199.89947908  .00000139  00000+0  54066-4 0  9994
2 69806  88.9926 358.6217 0007878 171.2755 188.8576 14.24251178  2070
