OBJECT_NAME,OBJECT_ID,EPOCH,MEAN_MOTION,ECCENTRICITY,INCLINATION,RA_OF_ASC_NODE,ARG_OF_PERICENTER,MEAN_ANOMALY,EPHEMERIS_TYPE,CLASSIFICATION_TYPE,NORAD_CAT_ID,ELEMENT_SET_NO,REV_AT_EPOCH,BSTAR,MEAN_MOTION_DOT,MEAN_MOTION_DDOT
KUIPER-00619,2026-151Q,2026-07-18T13:18:10.910016,15.38593794,.0002142,51.8809,163.9998,59.8022,300.3177,0,U,69777,999,253,.33569E-3,.12621E-3,0
KUIPER-00621,2026-151R,2026-07-18T14:55:10.942752,15.38363011,.000256,51.8803,163.7041,127.4874,232.6347,0,U,69778,999,254,.65034E-3,.24675E-3,0
KUIPER-00622,2026-151S,2026-07-18T21:29:53.924064,15.36974086,.00069576,51.8738,162.5379,158.2147,201.9136,0,U,69779,999,258,.35411057E-3,.12645E-3,0
KUIPER-00623,2026-151T,2026-07-17T06:22:24.548160,15.37672053,.0006129,51.8777,170.3650,146.6000,213.5375,0,U,69780,999,233,.3498E-2,.133416E-2,0
KUIPER-00626,2026-151U,2026-07-18T09:19:23.049408,15.34990807,.00076691,51.8720,165.1335,171.5528,188.5588,0,U,69781,999,250,-.27074801E-3,-.9712E-4,0
KUIPER-00627,2026-151V,2026-07-18T09:22:25.045824,15.34693182,.00108229,51.8693,165.1438,175.1356,184.9736,0,U,69782,999,250,-.13893961E-2,-.47612E-3,0
KUIPER-00629,2026-151W,2026-07-18T22:00:01.999584,15.29891646,.00068426,51.8787,162.5704,168.7212,255.3018,0,U,69783,999,291,.68168057E-4,.164E-4,0
KUIPER-00631,2026-151X,2026-07-18T22:00:01.999584,15.30796477,.00081568,51.8751,162.5550,171.0644,252.6311,0,U,69784,999,130,-.32258533E-1,-.896249E-2,0
KUIPER-00634,2026-151Y,2026-07-18T21:18:20.035296,15.37799885,.00036019,51.8779,162.4879,144.1604,215.9626,0,U,69785,999,258,.35347543E-3,.12966E-3,0
KUIPER-00639,2026-151Z,2026-07-18T21:45:05.419872,15.35101492,.00099161,51.8719,162.6032,176.2315,183.8747,0,U,69786,999,258,.46012023E-3,.15584E-3,0
KUIPER-00641,2026-151AA,2026-07-18T16:00:03.999744,15.34501818,.00119388,51.8679,163.8314,170.4788,267.0344,0,U,69787,999,318,.93042651E-4,.2779E-4,0
KUIPER-00644,2026-151AB,2026-07-18T22:00:01.999584,15.36540694,.00084044,51.8750,162.4923,172.0138,276.4377,0,U,69788,999,352,.53830469E-3,.19176E-3,0
KUIPER-00646,2026-151AC,2026-07-18T12:21:04.641120,15.35875674,.0009142,51.8704,164.4782,177.9379,182.1646,0,U,69789,999,252,.68987E-3,.24178E-3,0
KUIPER-00647,2026-151AD,2026-07-18T09:20:35.448288,15.35105780,.0010638,51.8665,165.1337,176.4406,183.6657,0,U,69790,999,250,-.34048503E-4,-.1567E-4,0
KUIPER-00662,2026-151AE,2026-07-18T21:37:02.896608,15.36538152,.00082124,51.8748,162.5705,172.1395,187.9722,0,U,69791,999,258,.2449411E-3,.8498E-4,0
LINK,2026-152A,2026-07-18T13:22:51.214944,15.67914384,.0024958,20.5910,301.5041,41.6624,318.5720,0,U,69792,999,238,.77286E-3,.92753E-3,0
2026-152B,2026-152B,2026-07-18T22:54:26.373024,15.65042614,.00230358,20.5977,298.7275,45.0737,315.1574,0,U,69793,999,244,.30949102E-3,.33307E-3,0
ISS OBJECT YJ,1998-067YJ,2026-07-18T22:02:29.625216,15.50174623,.0007751,51.6313,142.9566,324.7692,35.2783,0,U,69794,999,257,.35741455E-3,.20138E-3,0
ISS OBJECT YK,1998-067YK,2026-07-18T20:21:44.744256,15.50965020,.00065922,51.6313,143.2401,331.5966,28.4663,0,U,69795,999,256,.60292842E-3,.35331E-3,0
ISS OBJECT YL,1998-067YL,2026-07-18T01:50:23.032608,15.50628198,.00087195,51.6315,147.0863,322.6666,37.3717,0,U,69796,999,243,.49057354E-3,.28307E-3,0
ISS OBJECT YM,1998-067YM,2026-07-18T03:22:42.429504,15.50677012,.00095277,51.6314,146.7645,314.1271,45.8934,0,U,69797,999,243,.50205193E-3,.29042E-3,0
ISS OBJECT YN,1998-067YN,2026-07-18T01:51:30.396960,15.50414888,.00091903,51.6317,147.0913,325.6783,34.3611,0,U,69798,999,244,.32670208E-3,.18532E-3,0
PROVES-ELECTRA,1998-067YP,2026-07-17T04:10:34.012992,15.50615173,.00097002,51.6315,151.5587,310.8273,49.1874,0,U,69799,999,229,.41820358E-3,.24046E-3,0
QIANFAN-201,2026-153A,2026-07-18T04:31:31.913184,14.22000035,.00069053,88.9921,358.7016,149.7286,210.4306,0,U,69800,999,197,-.84413937E+0,-.1723216E-1,0
QIANFAN-202,2026-153B,2026-07-18T22:04:51.736800,14.18843921,.00070947,88.9927,358.6249,163.2772,196.8652,0,U,69801,999,207,.74767501E-4,.17E-5,0
QIANFAN-203,2026-153C,2026-07-18T08:19:06.493152,14.17511061,.00126494,88.9920,358.6881,191.3457,168.7448,0,U,69802,999,199,-.99096051E+0,-.1871829E-1,0
QIANFAN-204,2026-153D,2026-07-18T21:58:02.143776,14.20114629,.00080537,88.9927,358.6241,166.7059,193.4345,0,U,69803,999,207,.51895053E-4,.125E-5,0
QIANFAN-205,2026-153E,2026-07-18T21:53:20.345856,14.22264904,.00079571,88.9926,358.6234,170.5286,189.6057,0,U,69804,999,207,.4060826E-4,.105E-5,0
QIANFAN-206,2026-153F,2026-07-18T21:37:50.465856,14.24034656,.000844,88.9926,358.6219,171.1991,188.9351,0,U,69805,999,207,.13589344E-4,.46E-6,0
QIANFAN-207,2026-153G,2026-07-18T21:35:14.992512,14.24251178,.0007878,88.9926,358.6217,171.2755,188.8576,0,U,69806,999,207,.54066386E-4,.139E-5,0
